start=new Date('2021-11-04T00:00:00.000Z').valueOf();
sats=[{"REF_FRAME":"TEME","MEAN_MOTION_DOT":"-0.00004459","REV_AT_EPOCH":"7950","EPOCH":"2021-11-03T13:07:28.342848","ELEMENT_SET_NO":"999","INCLINATION":"53.0562","OBJECT_TYPE":"PAYLOAD","SEMIMAJOR_AXIS":"6925.332","PERIAPSIS":"546.293","MEAN_MOTION_DDOT":"0.0000000000000","LAUNCH_DATE":"2020-06-04","MEAN_ANOMALY":"271.9928","ECCENTRICITY":"0.00013050","APOAPSIS":"548.100","TLE_LINE1":"1 45667U 20035L   21307.54685582 -.00004459  00000-0 -28058-3 0  9994","RA_OF_ASC_NODE":"351.5845","RCS_SIZE":"LARGE","TLE_LINE2":"2 45667  53.0562 351.5845 0001305  88.1210 271.9928 15.06405563 79505","SITE":"AFETR","GP_ID":"188857685","EPHEMERIS_TYPE":"0","PERIOD":"95.592","TIME_SYSTEM":"UTC","ARG_OF_PERICENTER":"88.1210","BSTAR":"-0.00028058000000","NORAD_CAT_ID":"45667","COUNTRY_CODE":"US","MEAN_ELEMENT_THEORY":"SGP4","CENTER_NAME":"EARTH","MEAN_MOTION":"15.06405563","FILE":"3200165","OBJECT_NAME":"STARLINK-1450","DECAY_DATE":null,"OBJECT_ID":"2020-035L","CLASSIFICATION_TYPE":"U"},{"REF_FRAME":"TEME","MEAN_MOTION_DOT":"0.00002228","REV_AT_EPOCH":"7951","ELEMENT_SET_NO":"999","EPOCH":"2021-11-03T12:30:20.373696","SEMIMAJOR_AXIS":"6925.362","OBJECT_TYPE":"PAYLOAD","INCLINATION":"53.0540","MEAN_MOTION_DDOT":"0.0000000000000","PERIAPSIS":"546.298","MEAN_ANOMALY":"270.1646","LAUNCH_DATE":"2020-06-04","ECCENTRICITY":"0.00013420","RA_OF_ASC_NODE":"351.7070","APOAPSIS":"548.156","TLE_LINE1":"1 45668U 20035M   21307.52106914  .00002228  00000-0  16841-3 0  9997","EPHEMERIS_TYPE":"0","PERIOD":"95.592","SITE":"AFETR","GP_ID":"188857936","RCS_SIZE":"LARGE","TLE_LINE2":"2 45668  53.0540 351.7070 0001342  89.9497 270.1646 15.06395642 79516","TIME_SYSTEM":"UTC","NORAD_CAT_ID":"45668","BSTAR":"0.00016841000000","ARG_OF_PERICENTER":"89.9497","MEAN_ELEMENT_THEORY":"SGP4","COUNTRY_CODE":"US","CENTER_NAME":"EARTH","FILE":"3200165","MEAN_MOTION":"15.06395642","OBJECT_ID":"2020-035M","CLASSIFICATION_TYPE":"U","OBJECT_NAME":"STARLINK-1451","DECAY_DATE":null},{"COUNTRY_CODE":"US","CENTER_NAME":"EARTH","MEAN_ELEMENT_THEORY":"SGP4","ARG_OF_PERICENTER":"89.7336","BSTAR":"0.00001136100000","NORAD_CAT_ID":"45669","DECAY_DATE":null,"OBJECT_NAME":"STARLINK-1452","CLASSIFICATION_TYPE":"U","OBJECT_ID":"2020-035N","FILE":"3200165","MEAN_MOTION":"15.06397835","RCS_SIZE":"LARGE","TLE_LINE2":"2 45669  53.0552 351.2020 0001432  89.7336 270.3817 15.06397835 79529","GP_ID":"188856684","SITE":"AFETR","EPHEMERIS_TYPE":"0","PERIOD":"95.592","APOAPSIS":"548.212","TLE_LINE1":"1 45669U 20035N   21307.63162628 -.00000112  00000-0  11361-4 0  9998","RA_OF_ASC_NODE":"351.2020","TIME_SYSTEM":"UTC","PERIAPSIS":"546.228","MEAN_MOTION_DDOT":"0.0000000000000","ECCENTRICITY":"0.00014320","LAUNCH_DATE":"2020-06-04","MEAN_ANOMALY":"270.3817","REV_AT_EPOCH":"7952","MEAN_MOTION_DOT":"-0.00000112","REF_FRAME":"TEME","INCLINATION":"53.0552","SEMIMAJOR_AXIS":"6925.355","OBJECT_TYPE":"PAYLOAD","EPOCH":"2021-11-03T15:09:32.510592","ELEMENT_SET_NO":"999"},{"SITE":"AFETR","GP_ID":"188834196","RCS_SIZE":"LARGE","TLE_LINE2":"2 45670  53.0539 321.8315 0001409  76.6718 283.4428 15.06388702 79514","EPHEMERIS_TYPE":"0","PERIOD":"95.593","APOAPSIS":"548.224","TLE_LINE1":"1 45670U 20035P   21307.49065095 -.00000052  00000-0  15439-4 0  9997","RA_OF_ASC_NODE":"321.8315","TIME_SYSTEM":"UTC","MEAN_ELEMENT_THEORY":"SGP4","COUNTRY_CODE":"US","CENTER_NAME":"EARTH","NORAD_CAT_ID":"45670","ARG_OF_PERICENTER":"76.6718","BSTAR":"0.00001543900000","DECAY_DATE":null,"OBJECT_NAME":"STARLINK-1453","OBJECT_ID":"2020-035P","CLASSIFICATION_TYPE":"U","MEAN_MOTION":"15.06388702","FILE":"3200005","REV_AT_EPOCH":"7951","MEAN_MOTION_DOT":"-0.00000052","REF_FRAME":"TEME","OBJECT_TYPE":"PAYLOAD","SEMIMAJOR_AXIS":"6925.383","INCLINATION":"53.0539","EPOCH":"2021-11-03T11:46:32.242080","ELEMENT_SET_NO":"999","PERIAPSIS":"546.272","MEAN_MOTION_DDOT":"0.0000000000000","ECCENTRICITY":"0.00014090","LAUNCH_DATE":"2020-06-04","MEAN_ANOMALY":"283.4428"},{"TIME_SYSTEM":"UTC","RA_OF_ASC_NODE":"351.7818","APOAPSIS":"548.237","TLE_LINE1":"1 45671U 20035Q   21307.50263103 -.00000349  00000-0 -45265-5 0  9991","EPHEMERIS_TYPE":"0","PERIOD":"95.593","RCS_SIZE":"LARGE","TLE_LINE2":"2 45671  53.0555 351.7818 0001411  79.4242 280.6906 15.06384906 79094","SITE":"AFETR","GP_ID":"188834219","FILE":"3200006","MEAN_MOTION":"15.06384906","CLASSIFICATION_TYPE":"U","OBJECT_ID":"2020-035Q","OBJECT_NAME":"STARLINK-1454","DECAY_DATE":null,"BSTAR":"-0.00000452650000","ARG_OF_PERICENTER":"79.4242","NORAD_CAT_ID":"45671","MEAN_ELEMENT_THEORY":"SGP4","COUNTRY_CODE":"US","CENTER_NAME":"EARTH","ELEMENT_SET_NO":"999","EPOCH":"2021-11-03T12:03:47.320992","INCLINATION":"53.0555","OBJECT_TYPE":"PAYLOAD","SEMIMAJOR_AXIS":"6925.395","REF_FRAME":"TEME","MEAN_MOTION_DOT":"-0.00000349","REV_AT_EPOCH":"7909","MEAN_ANOMALY":"280.6906","LAUNCH_DATE":"2020-06-04","ECCENTRICITY":"0.00014110","MEAN_MOTION_DDOT":"0.0000000000000","PERIAPSIS":"546.283"},{"ARG_OF_PERICENTER":"89.9189","BSTAR":"-0.00002610300000","NORAD_CAT_ID":"45672","COUNTRY_CODE":"US","MEAN_ELEMENT_THEORY":"SGP4","CENTER_NAME":"EARTH","FILE":"3199758","MEAN_MOTION":"15.06401476","CLASSIFICATION_TYPE":"U","OBJECT_ID":"2020-035R","OBJECT_NAME":"STARLINK-1455","DECAY_DATE":null,"RA_OF_ASC_NODE":"322.6400","APOAPSIS":"548.037","TLE_LINE1":"1 45672U 20035R   21307.31371823 -.00000670  00000-0 -26103-4 0  9996","PERIOD":"95.592","EPHEMERIS_TYPE":"0","RCS_SIZE":"LARGE","TLE_LINE2":"2 45672  53.0547 322.6400 0001196  89.9189 270.1937 15.06401476 79894","SITE":"AFETR","GP_ID":"188825681","TIME_SYSTEM":"UTC","MEAN_MOTION_DDOT":"0.0000000000000","PERIAPSIS":"546.381","MEAN_ANOMALY":"270.1937","LAUNCH_DATE":"2020-06-04","ECCENTRICITY":"0.00011960","MEAN_MOTION_DOT":"-0.00000670","REF_FRAME":"TEME","REV_AT_EPOCH":"7989","ELEMENT_SET_NO":"999","EPOCH":"2021-11-03T07:31:45.255072","INCLINATION":"53.0547","OBJECT_TYPE":"PAYLOAD","SEMIMAJOR_AXIS":"6925.344"},{"MEAN_MOTION_DOT":"0.00001648","REF_FRAME":"TEME","REV_AT_EPOCH":"7950","EPOCH":"2021-11-03T10:49:29.188128","ELEMENT_SET_NO":"999","INCLINATION":"53.0543","OBJECT_TYPE":"PAYLOAD","SEMIMAJOR_AXIS":"6925.377","PERIAPSIS":"546.302","MEAN_MOTION_DDOT":"0.0000000000000","LAUNCH_DATE":"2020-06-04","MEAN_ANOMALY":"276.8299","ECCENTRICITY":"0.00013560","APOAPSIS":"548.181","TLE_LINE1":"1 45673U 20035S   21307.45103227  .00001648  00000-0  12954-3 0  9995","RA_OF_ASC_NODE":"352.0225","RCS_SIZE":"LARGE","TLE_LINE2":"2 45673  53.0543 352.0225 0001356  83.2844 276.8299 15.06390871 79504","SITE":"AFETR","GP_ID":"188825930","PERIOD":"95.593","EPHEMERIS_TYPE":"0","TIME_SYSTEM":"UTC","BSTAR":"0.00012954000000","ARG_OF_PERICENTER":"83.2844","NORAD_CAT_ID":"45673","COUNTRY_CODE":"US","MEAN_ELEMENT_THEORY":"SGP4","CENTER_NAME":"EARTH","MEAN_MOTION":"15.06390871","FILE":"3199758","OBJECT_NAME":"STARLINK-1456","DECAY_DATE":null,"CLASSIFICATION_TYPE":"U","OBJECT_ID":"2020-035S"},{"FILE":"3199758","MEAN_MOTION":"15.06393773","DECAY_DATE":null,"OBJECT_NAME":"STARLINK-1457","CLASSIFICATION_TYPE":"U","OBJECT_ID":"2020-035T","BSTAR":"0.00001309000000","ARG_OF_PERICENTER":"80.0952","NORAD_CAT_ID":"45674","CENTER_NAME":"EARTH","COUNTRY_CODE":"US","MEAN_ELEMENT_THEORY":"SGP4","TIME_SYSTEM":"UTC","TLE_LINE1":"1 45674U 20035T   21307.39204721 -.00000087  00000-0  13090-4 0  9990","APOAPSIS":"548.231","RA_OF_ASC_NODE":"352.2793","TLE_LINE2":"2 45674  53.0554 352.2793 0001441  80.0952 280.0199 15.06393773 79464","RCS_SIZE":"LARGE","GP_ID":"188826682","SITE":"AFETR","PERIOD":"95.593","EPHEMERIS_TYPE":"0","LAUNCH_DATE":"2020-06-04","MEAN_ANOMALY":"280.0199","ECCENTRICITY":"0.00014410","PERIAPSIS":"546.235","MEAN_MOTION_DDOT":"0.0000000000000","EPOCH":"2021-11-03T09:24:32.878944","ELEMENT_SET_NO":"999","INCLINATION":"53.0554","OBJECT_TYPE":"PAYLOAD","SEMIMAJOR_AXIS":"6925.368","MEAN_MOTION_DOT":"-0.00000087","REF_FRAME":"TEME","REV_AT_EPOCH":"7946"},{"MEAN_MOTION_DDOT":"0.0000000000000","PERIAPSIS":"546.220","MEAN_ANOMALY":"279.4262","LAUNCH_DATE":"2020-06-04","ECCENTRICITY":"0.00014200","MEAN_MOTION_DOT":"0.00001747","REF_FRAME":"TEME","REV_AT_EPOCH":"7946","ELEMENT_SET_NO":"999","EPOCH":"2021-11-03T10:44:08.957760","OBJECT_TYPE":"PAYLOAD","SEMIMAJOR_AXIS":"6925.339","INCLINATION":"53.0541","NORAD_CAT_ID":"45675","BSTAR":"0.00013616000000","ARG_OF_PERICENTER":"80.6888","COUNTRY_CODE":"US","CENTER_NAME":"EARTH","MEAN_ELEMENT_THEORY":"SGP4","MEAN_MOTION":"15.06403237","FILE":"3199758","CLASSIFICATION_TYPE":"U","OBJECT_ID":"2020-035U","DECAY_DATE":null,"OBJECT_NAME":"STARLINK-1458","RA_OF_ASC_NODE":"352.0393","TLE_LINE1":"1 45675U 20035U   21307.44732590  .00001747  00000-0  13616-3 0  9993","APOAPSIS":"548.187","PERIOD":"95.592","EPHEMERIS_TYPE":"0","SITE":"AFETR","GP_ID":"188826412","TLE_LINE2":"2 45675  53.0541 352.0393 0001420  80.6888 279.4262 15.06403237 79466","RCS_SIZE":"LARGE","TIME_SYSTEM":"UTC"},{"NORAD_CAT_ID":"45676","BSTAR":"0.00011666000000","ARG_OF_PERICENTER":"87.0482","COUNTRY_CODE":"US","MEAN_ELEMENT_THEORY":"SGP4","CENTER_NAME":"EARTH","MEAN_MOTION":"15.06402791","FILE":"3200165","OBJECT_ID":"2020-035V","CLASSIFICATION_TYPE":"U","OBJECT_NAME":"STARLINK-1460","DECAY_DATE":null,"RA_OF_ASC_NODE":"351.2633","TLE_LINE1":"1 45676U 20035V   21307.61689008  .00001457  00000-0  11666-3 0  9999","APOAPSIS":"548.040","EPHEMERIS_TYPE":"0","PERIOD":"95.592","SITE":"AFETR","GP_ID":"188857937","TLE_LINE2":"2 45676  53.0538 351.2633 0001205  87.0482 273.0645 15.06402791 79484","RCS_SIZE":"LARGE","TIME_SYSTEM":"UTC","MEAN_MOTION_DDOT":"0.0000000000000","PERIAPSIS":"546.371","MEAN_ANOMALY":"273.0645","LAUNCH_DATE":"2020-06-04","ECCENTRICITY":"0.00012050","MEAN_MOTION_DOT":"0.00001457","REF_FRAME":"TEME","REV_AT_EPOCH":"7948","ELEMENT_SET_NO":"999","EPOCH":"2021-11-03T14:48:19.302912","OBJECT_TYPE":"PAYLOAD","SEMIMAJOR_AXIS":"6925.340","INCLINATION":"53.0538"}];
